SL-6 DEB                
1 48261U 80063E   26091.77893244 -.00000538  00000+0 -54982-3 0  9998
2 48261  63.9443 355.4302 7119660 284.3859  11.8380  2.11473336 95390
SL-6 DEB                
1 48262U 80063F   26092.35948700 -.00000525  00000+0 -13949-2 0  9995
2 48262  63.6305  13.7176 7221753 280.8826 139.4809  2.05104412 92614
SL-6 DEB                
1 48265U 81123E   26090.45338493  .00000043  00000+0  00000+0 0  9991
2 48265  62.2511  75.6735 7109905 275.9090 325.9378  2.19418169 99028
COSMOS 1367 DEB         
1 48266U 82045E   26093.94803609 -.00000283  00000+0  47183-1 0  9991
2 48266  64.2202  61.2058 7204113  13.3369 358.2380  2.06325586 46094
ARIANE 3 DEB            
1 48347U 84081G   26093.60919418 -.00000080  00000+0  00000+0 0  9992
2 48347   6.1206  21.2230 7092236 322.6883   4.9271  2.08085913 94095
SBIRS GEO-5 (USA 315)   
1 48618U 21042A   26094.12350627 -.00000274  00000+0  00000+0 0  9995
2 48618   5.1984 328.5628 0001469  49.8790 312.2434  1.00272398 18030
FENGYUN 4B              
1 48808U 21047A   26094.41089411 -.00000329  00000+0  00000+0 0  9994
2 48808   0.0517 298.8121 0006133  81.9964  64.4582  1.00265577 17824
SXM-8                   
1 48838U 21049A   26092.37673851 -.00000211  00000+0  00000+0 0  9999
2 48838   0.0442  35.4209 0004773 357.3694 208.4066  1.00271317 17831
TIANLIAN 1-05           
1 49011U 21063A   26094.03692591  .00000108  00000+0  00000+0 0  9990
2 49011   1.4027  81.2656 0003432 250.7083 250.4325  1.00273453 17336
STAR ONE D2             
1 49055U 21069A   26094.51892419  .00000000  00000+0  00000+0 0  9999
2 49055   0.0235 178.5121 0000855 213.8942 277.1696  1.00268527 17206
EUTELSAT QUANTUM        
1 49056U 21069B   26094.24350380  .00000126  00000+0  00000+0 0  9995
2 49056   0.0054 232.5232 0002266 142.0726 313.3207  1.00270251 17186
ZHONGXING-2E            
1 49062U 21071A   26094.11711435 -.00000292  00000+0  00000+0 0  9998
2 49062   0.0466  53.1309 0001468  80.5771 198.9341  1.00273694 17293
TJS-7                   
1 49115U 21077A   26094.25682353 -.00000124  00000+0  00000+0 0  9998
2 49115   0.3186  86.9905 0002242 292.5262 166.0535  1.00271992  8819
CHINASAT 9B             
1 49125U 21080A   26090.55970061 -.00000326  00000+0  00000+0 0  9992
2 49125   0.0144 228.8246 0002063 119.0067 144.0154  1.00271884 16871
SHIYAN-10 01 (SY-10 01) 
1 49258U 21087A   26084.15707159  .00000723  00000+0  00000+0 0  9991
2 49258  63.1051 229.7633 6965627 269.9206  17.2146  2.00652834 32841
SHIJIAN-21 (SJ-21)      
1 49330U 21094A   26094.25600255 -.00000346  00000+0  00000+0 0  9993
2 49330   4.9389  61.5916 0047519 169.9935 181.1359  1.00273391  4615
SES-17                  
1 49332U 21095A   26094.23426670 -.00000273  00000+0  00000+0 0  9990
2 49332   0.0374  41.8495 0000681 351.0605 176.8784  1.00272029 17117
