[{"OBJECT_NAME":"SL-6 DEB","OBJECT_ID":"1980-063E","EPOCH":"2026-04-01T18:41:39.762816","MEAN_MOTION":2.11473336,"ECCENTRICITY":0.71196609,"INCLINATION":63.9443,"RA_OF_ASC_NODE":355.4302,"ARG_OF_PERICENTER":284.3859,"MEAN_ANOMALY":11.838,"EPHEMERIS_TYPE":0,"CLASSIFICATION_TYPE":"U","NORAD_CAT_ID":48261,"ELEMENT_SET_NO":999,"REV_AT_EPOCH":9539,"BSTAR":-0.00054981554,"MEAN_MOTION_DOT":-5.38e-6,"MEAN_MOTION_DDOT":0},{"OBJECT_NAME":"SL-6 DEB","OBJECT_ID":"1980-063F","EPOCH":"2026-04-02T08:37:39.676800","MEAN_MOTION":2.05104412,"ECCENTRICITY":0.7221753,"INCLINATION":63.6305,"RA_OF_ASC_NODE":13.7176,"ARG_OF_PERICENTER":280.8826,"MEAN_ANOMALY":139.4809,"EPHEMERIS_TYPE":0,"CLASSIFICATION_TYPE":"U","NORAD_CAT_ID":48262,"ELEMENT_SET_NO":999,"REV_AT_EPOCH":9261,"BSTAR":-0.001394925,"MEAN_MOTION_DOT":-5.25e-6,"MEAN_MOTION_DDOT":0},{"OBJECT_NAME":"SL-6 DEB","OBJECT_ID":"1981-123E","EPOCH":"2026-03-31T10:52:52.457952","MEAN_MOTION":2.19418169,"ECCENTRICITY":0.7109905,"INCLINATION":62.2511,"RA_OF_ASC_NODE":75.6735,"ARG_OF_PERICENTER":275.909,"MEAN_ANOMALY":325.9378,"EPHEMERIS_TYPE":0,"CLASSIFICATION_TYPE":"U","NORAD_CAT_ID":48265,"ELEMENT_SET_NO":999,"REV_AT_EPOCH":9902,"BSTAR":0,"MEAN_MOTION_DOT":4.3e-7,"MEAN_MOTION_DDOT":0},{"OBJECT_NAME":"COSMOS 1367 DEB","OBJECT_ID":"1982-045E","EPOCH":"2026-04-03T22:45:10.318176","MEAN_MOTION":2.06325586,"ECCENTRICITY":0.72041134,"INCLINATION":64.2202,"RA_OF_ASC_NODE":61.2058,"ARG_OF_PERICENTER":13.3369,"MEAN_ANOMALY":358.238,"EPHEMERIS_TYPE":0,"CLASSIFICATION_TYPE":"U","NORAD_CAT_ID":48266,"ELEMENT_SET_NO":999,"REV_AT_EPOCH":4609,"BSTAR":0.047183483,"MEAN_MOTION_DOT":-2.83e-6,"MEAN_MOTION_DDOT":0},{"OBJECT_NAME":"ARIANE 3 DEB","OBJECT_ID":"1984-081G","EPOCH":"2026-04-03T14:37:14.377152","MEAN_MOTION":2.08085913,"ECCENTRICITY":0.70922364,"INCLINATION":6.1206,"RA_OF_ASC_NODE":21.223,"ARG_OF_PERICENTER":322.6883,"MEAN_ANOMALY":4.9271,"EPHEMERIS_TYPE":0,"CLASSIFICATION_TYPE":"U","NORAD_CAT_ID":48347,"ELEMENT_SET_NO":999,"REV_AT_EPOCH":9409,"BSTAR":0,"MEAN_MOTION_DOT":-8.0e-7,"MEAN_MOTION_DDOT":0},{"OBJECT_NAME":"SBIRS GEO-5 (USA 315)","OBJECT_ID":"2021-042A","EPOCH":"2026-04-04T02:57:50.941728","MEAN_MOTION":1.00272398,"ECCENTRICITY":0.00014692,"INCLINATION":5.1984,"RA_OF_ASC_NODE":328.5628,"ARG_OF_PERICENTER":49.879,"MEAN_ANOMALY":312.2434,"EPHEMERIS_TYPE":0,"CLASSIFICATION_TYPE":"U","NORAD_CAT_ID":48618,"ELEMENT_SET_NO":999,"REV_AT_EPOCH":1803,"BSTAR":0,"MEAN_MOTION_DOT":-2.74e-6,"MEAN_MOTION_DDOT":0},{"OBJECT_NAME":"FENGYUN 4B","OBJECT_ID":"2021-047A","EPOCH":"2026-04-04T09:51:41.251104","MEAN_MOTION":1.00265577,"ECCENTRICITY":0.0006133,"INCLINATION":0.0517,"RA_OF_ASC_NODE":298.8121,"ARG_OF_PERICENTER":81.9964,"MEAN_ANOMALY":64.4582,"EPHEMERIS_TYPE":0,"CLASSIFICATION_TYPE":"U","NORAD_CAT_ID":48808,"ELEMENT_SET_NO":999,"REV_AT_EPOCH":1782,"BSTAR":0,"MEAN_MOTION_DOT":-3.29e-6,"MEAN_MOTION_DDOT":0},{"OBJECT_NAME":"SXM-8","OBJECT_ID":"2021-049A","EPOCH":"2026-04-02T09:02:30.207264","MEAN_MOTION":1.00271317,"ECCENTRICITY":0.00047732,"INCLINATION":0.0442,"RA_OF_ASC_NODE":35.4209,"ARG_OF_PERICENTER":357.3694,"MEAN_ANOMALY":208.4066,"EPHEMERIS_TYPE":0,"CLASSIFICATION_TYPE":"U","NORAD_CAT_ID":48838,"ELEMENT_SET_NO":999,"REV_AT_EPOCH":1783,"BSTAR":0,"MEAN_MOTION_DOT":-2.11e-6,"MEAN_MOTION_DDOT":0},{"OBJECT_NAME":"TIANLIAN 1-05","OBJECT_ID":"2021-063A","EPOCH":"2026-04-04T00:53:10.398624","MEAN_MOTION":1.00273453,"ECCENTRICITY":0.00034328,"INCLINATION":1.4027,"RA_OF_ASC_NODE":81.2656,"ARG_OF_PERICENTER":250.7083,"MEAN_ANOMALY":250.4325,"EPHEMERIS_TYPE":0,"CLASSIFICATION_TYPE":"U","NORAD_CAT_ID":49011,"ELEMENT_SET_NO":999,"REV_AT_EPOCH":1733,"BSTAR":0,"MEAN_MOTION_DOT":1.08e-6,"MEAN_MOTION_DDOT":0},{"OBJECT_NAME":"STAR ONE D2","OBJECT_ID":"2021-069A","EPOCH":"2026-04-04T12:27:15.050016","MEAN_MOTION":1.00268527,"ECCENTRICITY":8.55e-5,"INCLINATION":0.0235,"RA_OF_ASC_NODE":178.5121,"ARG_OF_PERICENTER":213.8942,"MEAN_ANOMALY":277.1696,"EPHEMERIS_TYPE":0,"CLASSIFICATION_TYPE":"U","NORAD_CAT_ID":49055,"ELEMENT_SET_NO":999,"REV_AT_EPOCH":1720,"BSTAR":0,"MEAN_MOTION_DOT":0,"MEAN_MOTION_DDOT":0},{"OBJECT_NAME":"EUTELSAT QUANTUM","OBJECT_ID":"2021-069B","EPOCH":"2026-04-04T05:50:38.728320","MEAN_MOTION":1.00270251,"ECCENTRICITY":0.00022665,"INCLINATION":0.0054,"RA_OF_ASC_NODE":232.5232,"ARG_OF_PERICENTER":142.0726,"MEAN_ANOMALY":313.3207,"EPHEMERIS_TYPE":0,"CLASSIFICATION_TYPE":"U","NORAD_CAT_ID":49056,"ELEMENT_SET_NO":999,"REV_AT_EPOCH":1718,"BSTAR":0,"MEAN_MOTION_DOT":1.26e-6,"MEAN_MOTION_DDOT":0},{"OBJECT_NAME":"ZHONGXING-2E","OBJECT_ID":"2021-071A","EPOCH":"2026-04-04T02:48:38.679840","MEAN_MOTION":1.00273694,"ECCENTRICITY":0.00014687,"INCLINATION":0.0466,"RA_OF_ASC_NODE":53.1309,"ARG_OF_PERICENTER":80.5771,"MEAN_ANOMALY":198.9341,"EPHEMERIS_TYPE":0,"CLASSIFICATION_TYPE":"U","NORAD_CAT_ID":49062,"ELEMENT_SET_NO":999,"REV_AT_EPOCH":1729,"BSTAR":0,"MEAN_MOTION_DOT":-2.92e-6,"MEAN_MOTION_DDOT":0},{"OBJECT_NAME":"TJS-7","OBJECT_ID":"2021-077A","EPOCH":"2026-04-04T06:09:49.552992","MEAN_MOTION":1.00271992,"ECCENTRICITY":0.00022427,"INCLINATION":0.3186,"RA_OF_ASC_NODE":86.9905,"ARG_OF_PERICENTER":292.5262,"MEAN_ANOMALY":166.0535,"EPHEMERIS_TYPE":0,"CLASSIFICATION_TYPE":"U","NORAD_CAT_ID":49115,"ELEMENT_SET_NO":999,"REV_AT_EPOCH":881,"BSTAR":0,"MEAN_MOTION_DOT":-1.24e-6,"MEAN_MOTION_DDOT":0},{"OBJECT_NAME":"CHINASAT 9B","OBJECT_ID":"2021-080A","EPOCH":"2026-03-31T13:25:58.132704","MEAN_MOTION":1.00271884,"ECCENTRICITY":0.00020639,"INCLINATION":0.0144,"RA_OF_ASC_NODE":228.8246,"ARG_OF_PERICENTER":119.0067,"MEAN_ANOMALY":144.0154,"EPHEMERIS_TYPE":0,"CLASSIFICATION_TYPE":"U","NORAD_CAT_ID":49125,"ELEMENT_SET_NO":999,"REV_AT_EPOCH":1687,"BSTAR":0,"MEAN_MOTION_DOT":-3.26e-6,"MEAN_MOTION_DDOT":0},{"OBJECT_NAME":"SHIYAN-10 01 (SY-10 01)","OBJECT_ID":"2021-087A","EPOCH":"2026-03-25T03:46:10.985376","MEAN_MOTION":2.00652834,"ECCENTRICITY":0.69656277,"INCLINATION":63.1051,"RA_OF_ASC_NODE":229.7633,"ARG_OF_PERICENTER":269.9206,"MEAN_ANOMALY":17.2146,"EPHEMERIS_TYPE":0,"CLASSIFICATION_TYPE":"U","NORAD_CAT_ID":49258,"ELEMENT_SET_NO":999,"REV_AT_EPOCH":3284,"BSTAR":0,"MEAN_MOTION_DOT":7.23e-6,"MEAN_MOTION_DDOT":0},{"OBJECT_NAME":"SHIJIAN-21 (SJ-21)","OBJECT_ID":"2021-094A","EPOCH":"2026-04-04T06:08:38.620320","MEAN_MOTION":1.00273391,"ECCENTRICITY":0.00475192,"INCLINATION":4.9389,"RA_OF_ASC_NODE":61.5916,"ARG_OF_PERICENTER":169.9935,"MEAN_ANOMALY":181.1359,"EPHEMERIS_TYPE":0,"CLASSIFICATION_TYPE":"U","NORAD_CAT_ID":49330,"ELEMENT_SET_NO":999,"REV_AT_EPOCH":461,"BSTAR":0,"MEAN_MOTION_DOT":-3.46e-6,"MEAN_MOTION_DDOT":0},{"OBJECT_NAME":"SES-17","OBJECT_ID":"2021-095A","EPOCH":"2026-04-04T05:37:20.642880","MEAN_MOTION":1.00272029,"ECCENTRICITY":6.811e-5,"INCLINATION":0.0374,"RA_OF_ASC_NODE":41.8495,"ARG_OF_PERICENTER":351.0605,"MEAN_ANOMALY":176.8784,"EPHEMERIS_TYPE":0,"CLASSIFICATION_TYPE":"U","NORAD_CAT_ID":49332,"ELEMENT_SET_NO":999,"REV_AT_EPOCH":1711,"BSTAR":0,"MEAN_MOTION_DOT":-2.73e-6,"MEAN_MOTION_DDOT":0}]
